IRIDIUM 36              
1 24967U 97056C   25010.34109491  .00000660  00000+0  21472-3 0  9994
2 24967  86.3951 239.2602 0002016  92.1562 267.9866 14.37346733429549
IRIDIUM 39              
1 25042U 97069D   25010.47537891  .00001109  00000+0  28765-3 0  9997
2 25042  86.3909 278.7587 0019950 110.4039 249.9310 14.48814900426128
IRIDIUM 38              
1 25043U 97069E   25010.55849763  .00000836  00000+0  27081-3 0  9997
2 25043  86.3967 299.4988 0000448 121.4366 238.6876 14.37851306423561
IRIDIUM 42              
1 25077U 97077A   25010.51155235  .00000809  00000+0  27121-3 0  9998
2 25077  86.3973 305.4952 0001509  80.7652 279.3715 14.36107523418560
IRIDIUM 44              
1 25078U 97077B   25010.61272643  .00000768  00000+0  23785-3 0  9999
2 25078  86.3957 287.7867 0002544 129.3559 230.7865 14.39976224421056
IRIDIUM 45              
1 25104U 97082A   25010.37664393  .00029470  00000+0  12731-2 0  9994
2 25104  86.3641 124.0824 0133670 199.3693 160.2442 15.14522004428099
IRIDIUM 24              
1 25105U 97082B   25010.44042549  .00000949  00000+0  28458-3 0  9990
2 25105  86.3945 147.1833 0009811 233.1913 126.8387 14.41805545420488
IRIDIUM 51              
1 25262U 98018A   25010.61636670  .00043194  00000+0  13566-2 0  9999
2 25262  86.3909 133.0487 0111477 130.1336 230.9744 15.26867885422887
